SENTINEL-6              
1 46984U 20086A   24243.79416198 -.00000037  00000+0  10329-3 0  9995
2 46984  66.0414  56.3099 0007768 269.3456  90.6669 12.80931210176501
